{
  "type": "FeatureCollection",
  "features": [
    {
      "type": "Feature",
      "properties": {
        "norad_id": 30940,
        "name": "FENGYUN 1C DEB",
        "group": "fengyun-1c-debris",
        "lat": -78.69499241507295,
        "lon": 42.81292940706355,
        "alt_km": 861.1123723648252,
        "timestamp": "2025-12-19T08:58:49.617958+00:00",
        "meta_object_name": "FENGYUN 1C DEB",
        "meta_object_id": "1999-025BAE",
        "meta_epoch": "2025-12-18T23:24:04.608576",
        "meta_mean_motion": 14.08314392,
        "meta_eccentricity": 0.00407505,
        "meta_inclination": 98.6239,
        "meta_ra_of_asc_node": 353.0439,
        "meta_arg_of_pericenter": 346.0757,
        "meta_mean_anomaly": 69.2612,
        "meta_ephemeris_type": 0,
        "meta_classification_type": "U",
        "meta_norad_cat_id": 30940,
        "meta_element_set_no": 999,
        "meta_rev_at_epoch": 96220,
        "meta_bstar": 0.00032273196,
        "meta_mean_motion_dot": 5.14e-06,
        "meta_mean_motion_ddot": 0,
        "tle_line1": "1 30940U 99025BAE 25352.97505334  .00000514  00000+0  32273-3 0  9993",
        "tle_line2": "2 30940  98.6239 353.0439 0040750 346.0757  69.2612 14.08314392962200"
      },
      "geometry": {
        "type": "Point",
        "coordinates": [
          42.81292940706355,
          -78.69499241507295
        ]
      }
    },
    {
      "type": "Feature",
      "properties": {
        "norad_id": 30941,
        "name": "FENGYUN 1C DEB",
        "group": "fengyun-1c-debris",
        "lat": -17.461821707728163,
        "lon": 27.377744175346695,
        "alt_km": 797.1514413918612,
        "timestamp": "2025-12-19T08:58:49.617968+00:00",
        "meta_object_name": "FENGYUN 1C DEB",
        "meta_object_id": "1999-025BAF",
        "meta_epoch": "2025-12-16T12:56:12.185952",
        "meta_mean_motion": 14.3107633,
        "meta_eccentricity": 0.00338881,
        "meta_inclination": 98.5491,
        "meta_ra_of_asc_node": 207.3009,
        "meta_arg_of_pericenter": 306.0217,
        "meta_mean_anomaly": 53.7827,
        "meta_ephemeris_type": 0,
        "meta_classification_type": "U",
        "meta_norad_cat_id": 30941,
        "meta_element_set_no": 999,
        "meta_rev_at_epoch": 96680,
        "meta_bstar": 0.0015073609,
        "meta_mean_motion_dot": 3.955e-05,
        "meta_mean_motion_ddot": 0,
        "tle_line1": "1 30941U 99025BAF 25350.53902993  .00003955  00000+0  15074-2 0  9997",
        "tle_line2": "2 30941  98.5491 207.3009 0033888 306.0217  53.7827 14.31076330966804"
      },
      "geometry": {
        "type": "Point",
        "coordinates": [
          27.377744175346695,
          -17.461821707728163
        ]
      }
    },
    {
      "type": "Feature",
      "properties": {
        "norad_id": 30942,
        "name": "FENGYUN 1C DEB",
        "group": "fengyun-1c-debris",
        "lat": 0.0007164609705993648,
        "lon": 171.43522207393175,
        "alt_km": 848.6863217056298,
        "timestamp": "2025-12-19T08:58:49.617978+00:00",
        "meta_object_name": "FENGYUN 1C DEB",
        "meta_object_id": "1999-025BAG",
        "meta_epoch": "2025-12-16T18:08:59.972352",
        "meta_mean_motion": 14.1484202,
        "meta_eccentricity": 0.01380243,
        "meta_inclination": 98.6797,
        "meta_ra_of_asc_node": 348.8885,
        "meta_arg_of_pericenter": 94.8865,
        "meta_mean_anomaly": 76.6147,
        "meta_ephemeris_type": 0,
        "meta_classification_type": "U",
        "meta_norad_cat_id": 30942,
        "meta_element_set_no": 999,
        "meta_rev_at_epoch": 96701,
        "meta_bstar": 0.0002068947,
        "meta_mean_motion_dot": 3.96e-06,
        "meta_mean_motion_ddot": 0,
        "tle_line1": "1 30942U 99025BAG 25350.75624968  .00000396  00000+0  20689-3 0  9990",
        "tle_line2": "2 30942  98.6797 348.8885 0138024  94.8865  76.6147 14.14842020967018"
      },
      "geometry": {
        "type": "Point",
        "coordinates": [
          171.43522207393175,
          0.0007164609705993648
        ]
      }
    },
    {
      "type": "Feature",
      "properties": {
        "norad_id": 30943,
        "name": "FENGYUN 1C DEB",
        "group": "fengyun-1c-debris",
        "lat": -81.16927832515393,
        "lon": 101.67100274150432,
        "alt_km": 912.9248575363044,
        "timestamp": "2025-12-19T08:58:49.617997+00:00",
        "meta_object_name": "FENGYUN 1C DEB",
        "meta_object_id": "1999-025BAH",
        "meta_epoch": "2025-12-18T19:44:02.580576",
        "meta_mean_motion": 14.04495482,
        "meta_eccentricity": 0.00507156,
        "meta_inclination": 98.7975,
        "meta_ra_of_asc_node": 6.5539,
        "meta_arg_of_pericenter": 48.9786,
        "meta_mean_anomaly": 311.5749,
        "meta_ephemeris_type": 0,
        "meta_classification_type": "U",
        "meta_norad_cat_id": 30943,
        "meta_element_set_no": 999,
        "meta_rev_at_epoch": 95827,
        "meta_bstar": 0.00035363843,
        "meta_mean_motion_dot": 5.28e-06,
        "meta_mean_motion_ddot": 0,
        "tle_line1": "1 30943U 99025BAH 25352.82225209  .00000528  00000+0  35364-3 0  9999",
        "tle_line2": "2 30943  98.7975   6.5539 0050715  48.9786 311.5749 14.04495482958276"
      },
      "geometry": {
        "type": "Point",
        "coordinates": [
          101.67100274150432,
          -81.16927832515393
        ]
      }
    },
    {
      "type": "Feature",
      "properties": {
        "norad_id": 30944,
        "name": "FENGYUN 1C DEB",
        "group": "fengyun-1c-debris",
        "lat": 22.65988734188954,
        "lon": -126.83763126653582,
        "alt_km": 690.5640397876323,
        "timestamp": "2025-12-19T08:58:49.618019+00:00",
        "meta_object_name": "FENGYUN 1C DEB",
        "meta_object_id": "1999-025BAJ",
        "meta_epoch": "2025-12-18T02:39:13.502016",
        "meta_mean_motion": 14.5245153,
        "meta_eccentricity": 0.01493413,
        "meta_inclination": 98.8497,
        "meta_ra_of_asc_node": 48.1008,
        "meta_arg_of_pericenter": 84.5252,
        "meta_mean_anomaly": 307.373,
        "meta_ephemeris_type": 0,
        "meta_classification_type": "U",
        "meta_norad_cat_id": 30944,
        "meta_element_set_no": 999,
        "meta_rev_at_epoch": 99154,
        "meta_bstar": 0.00011571499,
        "meta_mean_motion_dot": 4.89e-06,
        "meta_mean_motion_ddot": 0,
        "tle_line1": "1 30944U 99025BAJ 25352.11057294  .00000489  00000+0  11571-3 0  9999",
        "tle_line2": "2 30944  98.8497  48.1008 0149341  84.5252 307.3730 14.52451530991547"
      },
      "geometry": {
        "type": "Point",
        "coordinates": [
          -126.83763126653582,
          22.65988734188954
        ]
      }
    },
    {
      "type": "Feature",
      "properties": {
        "norad_id": 30945,
        "name": "FENGYUN 1C DEB",
        "group": "fengyun-1c-debris",
        "lat": 79.63775370777857,
        "lon": -62.26619776128035,
        "alt_km": 776.0952210353189,
        "timestamp": "2025-12-19T08:58:49.618037+00:00",
        "meta_object_name": "FENGYUN 1C DEB",
        "meta_object_id": "1999-025BAK",
        "meta_epoch": "2025-12-16T06:45:55.175904",
        "meta_mean_motion": 14.29744942,
        "meta_eccentricity": 0.00305457,
        "meta_inclination": 99.3902,
        "meta_ra_of_asc_node": 359.2236,
        "meta_arg_of_pericenter": 28.5823,
        "meta_mean_anomaly": 349.1653,
        "meta_ephemeris_type": 0,
        "meta_classification_type": "U",
        "meta_norad_cat_id": 30945,
        "meta_element_set_no": 999,
        "meta_rev_at_epoch": 96488,
        "meta_bstar": 0.0012467125,
        "meta_mean_motion_dot": 3.167e-05,
        "meta_mean_motion_ddot": 0,
        "tle_line1": "1 30945U 99025BAK 25350.28188861  .00003167  00000+0  12467-2 0  9991",
        "tle_line2": "2 30945  99.3902 359.2236 0030545  28.5823 349.1653 14.29744942964882"
      },
      "geometry": {
        "type": "Point",
        "coordinates": [
          -62.26619776128035,
          79.63775370777857
        ]
      }
    },
    {
      "type": "Feature",
      "properties": {
        "norad_id": 30946,
        "name": "FENGYUN 1C DEB",
        "group": "fengyun-1c-debris",
        "lat": 60.090418580601764,
        "lon": -54.91362290102491,
        "alt_km": 688.4818281966418,
        "timestamp": "2025-12-19T08:58:49.618054+00:00",
        "meta_object_name": "FENGYUN 1C DEB",
        "meta_object_id": "1999-025BAL",
        "meta_epoch": "2025-12-17T06:49:18.317856",
        "meta_mean_motion": 14.4817512,
        "meta_eccentricity": 0.0089491,
        "meta_inclination": 99.0386,
        "meta_ra_of_asc_node": 106.7882,
        "meta_arg_of_pericenter": 179.4192,
        "meta_mean_anomaly": 210.4096,
        "meta_ephemeris_type": 0,
        "meta_classification_type": "U",
        "meta_norad_cat_id": 30946,
        "meta_element_set_no": 999,
        "meta_rev_at_epoch": 98417,
        "meta_bstar": 0.00061032712,
        "meta_mean_motion_dot": 2.339e-05,
        "meta_mean_motion_ddot": 0,
        "tle_line1": "1 30946U 99025BAL 25351.28423979  .00002339  00000+0  61033-3 0  9999",
        "tle_line2": "2 30946  99.0386 106.7882 0089491 179.4192 210.4096 14.48175120984179"
      },
      "geometry": {
        "type": "Point",
        "coordinates": [
          -54.91362290102491,
          60.090418580601764
        ]
      }
    }
  ]
}